[Satellite]
VERSION=1.1
NAME=YAOGAN 7
NICKNAME=YAOGAN 7
TLE1=1 36110U 09069A   15055.47042670  .00000240  00000-0  43378-4 0  9996
TLE2=2 36110  98.0945 196.4739 0023487 293.0991  66.7762 14.75018541280497
